start=new Date('2021-11-21T00:00:00.000Z').valueOf();
sats=[{"NORAD_CAT_ID":"47900","ECCENTRICITY":"0.00012620","TIME_SYSTEM":"UTC","RA_OF_ASC_NODE":"120.5145","RCS_SIZE":"LARGE","OBJECT_TYPE":"PAYLOAD","EPOCH":"2021-11-20T11:47:51.412992","TLE_LINE2":"2 47900  53.0562 120.5145 0001262  71.8556 288.2570 15.06388832 39530","LAUNCH_DATE":"2021-03-14","COUNTRY_CODE":"US","PERIAPSIS":"546.374","REF_FRAME":"TEME","MEAN_ANOMALY":"288.2570","REV_AT_EPOCH":"3953","OBJECT_ID":"2021-021AS","EPHEMERIS_TYPE":"0","ARG_OF_PERICENTER":"71.8556","OBJECT_NAME":"STARLINK-2360","SEMIMAJOR_AXIS":"6925.383","MEAN_MOTION_DOT":"0.00000561","MEAN_MOTION":"15.06388832","GP_ID":"190142148","DECAY_DATE":null,"CLASSIFICATION_TYPE":"U","PERIOD":"95.593","BSTAR":"0.00005655400000","TLE_LINE1":"1 47900U 21021AS  21324.49156728  .00000561  00000-0  56554-4 0  9991","SITE":"AFETR","MEAN_ELEMENT_THEORY":"SGP4","CENTER_NAME":"EARTH","ELEMENT_SET_NO":"999","FILE":"3220049","APOAPSIS":"548.122","INCLINATION":"53.0562","MEAN_MOTION_DDOT":"0.0000000000000"},{"EPHEMERIS_TYPE":"0","ARG_OF_PERICENTER":"84.4142","OBJECT_NAME":"STARLINK-2361","SEMIMAJOR_AXIS":"6925.363","MEAN_MOTION_DOT":"-0.00000965","MEAN_MOTION":"15.06395224","GP_ID":"190142898","DECAY_DATE":null,"CLASSIFICATION_TYPE":"U","PERIOD":"95.592","BSTAR":"-0.00004591700000","TLE_LINE1":"1 47901U 21021AT  21324.44825631 -.00000965  00000-0 -45917-4 0  9994","SITE":"AFETR","MEAN_ELEMENT_THEORY":"SGP4","ELEMENT_SET_NO":"999","CENTER_NAME":"EARTH","FILE":"3220049","APOAPSIS":"548.275","INCLINATION":"53.0545","MEAN_MOTION_DDOT":"0.0000000000000","NORAD_CAT_ID":"47901","ECCENTRICITY":"0.00015120","TIME_SYSTEM":"UTC","RA_OF_ASC_NODE":"110.6981","RCS_SIZE":"LARGE","OBJECT_TYPE":"PAYLOAD","EPOCH":"2021-11-20T10:45:29.345184","TLE_LINE2":"2 47901  53.0545 110.6981 0001512  84.4142 275.7019 15.06395224 39654","LAUNCH_DATE":"2021-03-14","COUNTRY_CODE":"US","PERIAPSIS":"546.181","REF_FRAME":"TEME","MEAN_ANOMALY":"275.7019","REV_AT_EPOCH":"3965","OBJECT_ID":"2021-021AT"},{"SEMIMAJOR_AXIS":"6925.878","MEAN_MOTION_DOT":"0.00034502","MEAN_MOTION":"15.06227320","EPHEMERIS_TYPE":"0","ARG_OF_PERICENTER":"73.6603","OBJECT_NAME":"STARLINK-2362","CLASSIFICATION_TYPE":"U","PERIOD":"95.603","GP_ID":"190141147","DECAY_DATE":null,"MEAN_ELEMENT_THEORY":"SGP4","BSTAR":"0.00233460000000","TLE_LINE1":"1 47902U 21021AU  21324.50635182  .00034502  00000-0  23346-2 0  9994","SITE":"AFETR","MEAN_MOTION_DDOT":"0.0000000000000","CENTER_NAME":"EARTH","ELEMENT_SET_NO":"999","APOAPSIS":"549.547","FILE":"3220049","INCLINATION":"53.0544","TIME_SYSTEM":"UTC","NORAD_CAT_ID":"47902","ECCENTRICITY":"0.00026050","OBJECT_TYPE":"PAYLOAD","RA_OF_ASC_NODE":"130.4303","RCS_SIZE":"LARGE","LAUNCH_DATE":"2021-03-14","COUNTRY_CODE":"US","PERIAPSIS":"545.939","EPOCH":"2021-11-20T12:09:08.797248","TLE_LINE2":"2 47902  53.0544 130.4303 0002605  73.6603 286.4672 15.06227320 39495","REV_AT_EPOCH":"3949","OBJECT_ID":"2021-021AU","REF_FRAME":"TEME","MEAN_ANOMALY":"286.4672"},{"PERIAPSIS":"546.022","COUNTRY_CODE":"US","LAUNCH_DATE":"2021-03-14","TLE_LINE2":"2 47903  53.0562 109.7435 0001732  82.4462 277.6724 15.06397462 39228","EPOCH":"2021-11-20T15:54:41.573952","OBJECT_ID":"2021-021AV","REV_AT_EPOCH":"3922","MEAN_ANOMALY":"277.6724","REF_FRAME":"TEME","TIME_SYSTEM":"UTC","ECCENTRICITY":"0.00017320","NORAD_CAT_ID":"47903","OBJECT_TYPE":"PAYLOAD","RCS_SIZE":"LARGE","RA_OF_ASC_NODE":"109.7435","MEAN_ELEMENT_THEORY":"SGP4","SITE":"AFETR","TLE_LINE1":"1 47903U 21021AV  21324.66298118  .00000675  00000-0  64223-4 0  9991","BSTAR":"0.00006422300000","MEAN_MOTION_DDOT":"0.0000000000000","INCLINATION":"53.0562","FILE":"3220213","APOAPSIS":"548.421","ELEMENT_SET_NO":"999","CENTER_NAME":"EARTH","MEAN_MOTION":"15.06397462","MEAN_MOTION_DOT":"0.00000675","SEMIMAJOR_AXIS":"6925.356","OBJECT_NAME":"STARLINK-2363","ARG_OF_PERICENTER":"82.4462","EPHEMERIS_TYPE":"0","PERIOD":"95.592","CLASSIFICATION_TYPE":"U","DECAY_DATE":null,"GP_ID":"190147307"},{"LAUNCH_DATE":"2021-03-14","PERIAPSIS":"546.060","COUNTRY_CODE":"US","EPOCH":"2021-11-20T11:02:46.382784","TLE_LINE2":"2 47904  53.0561 110.6442 0001689  97.5074 262.6107 15.06394575 39641","REV_AT_EPOCH":"3964","OBJECT_ID":"2021-021AW","MEAN_ANOMALY":"262.6107","REF_FRAME":"TEME","TIME_SYSTEM":"UTC","NORAD_CAT_ID":"47904","ECCENTRICITY":"0.00016890","OBJECT_TYPE":"PAYLOAD","RA_OF_ASC_NODE":"110.6442","RCS_SIZE":"LARGE","MEAN_ELEMENT_THEORY":"SGP4","BSTAR":"-0.00004210300000","SITE":"AFETR","TLE_LINE1":"1 47904U 21021AW  21324.46025906 -.00000909  00000-0 -42103-4 0  9998","MEAN_MOTION_DDOT":"0.0000000000000","APOAPSIS":"548.400","FILE":"3220049","CENTER_NAME":"EARTH","ELEMENT_SET_NO":"999","INCLINATION":"53.0561","MEAN_MOTION_DOT":"-0.00000909","SEMIMAJOR_AXIS":"6925.365","MEAN_MOTION":"15.06394575","EPHEMERIS_TYPE":"0","OBJECT_NAME":"STARLINK-2364","ARG_OF_PERICENTER":"97.5074","CLASSIFICATION_TYPE":"U","PERIOD":"95.592","GP_ID":"190142648","DECAY_DATE":null},{"EPOCH":"2021-11-20T09:21:55.892736","TLE_LINE2":"2 47905  53.0555 110.9628 0001430  87.1730 272.9423 15.06395152 39762","LAUNCH_DATE":"2021-03-14","PERIAPSIS":"546.238","COUNTRY_CODE":"US","MEAN_ANOMALY":"272.9423","REF_FRAME":"TEME","REV_AT_EPOCH":"3976","OBJECT_ID":"2021-021AX","NORAD_CAT_ID":"47905","ECCENTRICITY":"0.00014300","TIME_SYSTEM":"UTC","RA_OF_ASC_NODE":"110.9628","RCS_SIZE":"LARGE","OBJECT_TYPE":"PAYLOAD","BSTAR":"0.00007719500000","SITE":"AFETR","TLE_LINE1":"1 47905U 21021AX  21324.39023024  .00000868  00000-0  77195-4 0  9991","MEAN_ELEMENT_THEORY":"SGP4","FILE":"3220049","APOAPSIS":"548.219","CENTER_NAME":"EARTH","ELEMENT_SET_NO":"999","INCLINATION":"53.0555","MEAN_MOTION_DDOT":"0.0000000000000","EPHEMERIS_TYPE":"0","OBJECT_NAME":"STARLINK-2365","ARG_OF_PERICENTER":"87.1730","MEAN_MOTION_DOT":"0.00000868","SEMIMAJOR_AXIS":"6925.363","MEAN_MOTION":"15.06395152","GP_ID":"190142399","DECAY_DATE":null,"CLASSIFICATION_TYPE":"U","PERIOD":"95.592"},{"OBJECT_NAME":"STARLINK-2366","ARG_OF_PERICENTER":"317.7865","EPHEMERIS_TYPE":"0","MEAN_MOTION":"15.71485023","MEAN_MOTION_DOT":"0.00008904","SEMIMAJOR_AXIS":"6732.789","DECAY_DATE":null,"GP_ID":"190141647","PERIOD":"91.633","CLASSIFICATION_TYPE":"U","SITE":"AFETR","TLE_LINE1":"1 47906U 21021AY  21324.46415891  .00008904  00000-0  72712-4 0  9996","BSTAR":"0.00007271200000","MEAN_ELEMENT_THEORY":"SGP4","INCLINATION":"53.0526","FILE":"3220049","APOAPSIS":"360.673","ELEMENT_SET_NO":"999","CENTER_NAME":"EARTH","MEAN_MOTION_DDOT":"0.0000000000000","ECCENTRICITY":"0.00089390","NORAD_CAT_ID":"47906","TIME_SYSTEM":"UTC","RCS_SIZE":"LARGE","RA_OF_ASC_NODE":"56.8449","OBJECT_TYPE":"PAYLOAD","TLE_LINE2":"2 47906  53.0526  56.8449 0008939 317.7865  42.2463 15.71485023 40529","EPOCH":"2021-11-20T11:08:23.329824","PERIAPSIS":"348.636","COUNTRY_CODE":"US","LAUNCH_DATE":"2021-03-14","MEAN_ANOMALY":"42.2463","REF_FRAME":"TEME","OBJECT_ID":"2021-021AY","REV_AT_EPOCH":"4052"},{"BSTAR":"0.00006764300000","TLE_LINE1":"1 47907U 21021AZ  21324.66484774  .00000726  00000-0  67643-4 0  9996","SITE":"AFETR","MEAN_ELEMENT_THEORY":"SGP4","ELEMENT_SET_NO":"999","CENTER_NAME":"EARTH","APOAPSIS":"548.251","FILE":"3220067","INCLINATION":"53.0559","MEAN_MOTION_DDOT":"0.0000000000000","EPHEMERIS_TYPE":"0","ARG_OF_PERICENTER":"87.5233","OBJECT_NAME":"STARLINK-2367","SEMIMAJOR_AXIS":"6925.349","MEAN_MOTION_DOT":"0.00000726","MEAN_MOTION":"15.06399780","GP_ID":"190144115","DECAY_DATE":null,"CLASSIFICATION_TYPE":"U","PERIOD":"95.592","EPOCH":"2021-11-20T15:57:22.844736","TLE_LINE2":"2 47907  53.0559 129.7352 0001497  87.5233 272.5927 15.06399780 38939","LAUNCH_DATE":"2021-03-14","COUNTRY_CODE":"US","PERIAPSIS":"546.178","REF_FRAME":"TEME","MEAN_ANOMALY":"272.5927","REV_AT_EPOCH":"3893","OBJECT_ID":"2021-021AZ","NORAD_CAT_ID":"47907","ECCENTRICITY":"0.00014970","TIME_SYSTEM":"UTC","RA_OF_ASC_NODE":"129.7352","RCS_SIZE":"LARGE","OBJECT_TYPE":"PAYLOAD"},{"LAUNCH_DATE":"2021-03-14","COUNTRY_CODE":"US","PERIAPSIS":"545.961","EPOCH":"2021-11-20T11:21:20.795904","TLE_LINE2":"2 47908  53.0557 130.5904 0001835  87.9771 272.1428 15.06393886 39370","REV_AT_EPOCH":"3937","OBJECT_ID":"2021-021BA","REF_FRAME":"TEME","MEAN_ANOMALY":"272.1428","TIME_SYSTEM":"UTC","NORAD_CAT_ID":"47908","ECCENTRICITY":"0.00018350","OBJECT_TYPE":"PAYLOAD","RA_OF_ASC_NODE":"130.5904","RCS_SIZE":"LARGE","MEAN_ELEMENT_THEORY":"SGP4","BSTAR":"-0.00007028200000","TLE_LINE1":"1 47908U 21021BA  21324.47315736 -.00001328  00000-0 -70282-4 0  9991","SITE":"AFETR","MEAN_MOTION_DDOT":"0.0000000000000","CENTER_NAME":"EARTH","ELEMENT_SET_NO":"999","FILE":"3220049","APOAPSIS":"548.503","INCLINATION":"53.0557","SEMIMAJOR_AXIS":"6925.367","MEAN_MOTION_DOT":"-0.00001328","MEAN_MOTION":"15.06393886","EPHEMERIS_TYPE":"0","ARG_OF_PERICENTER":"87.9771","OBJECT_NAME":"STARLINK-2368","CLASSIFICATION_TYPE":"U","PERIOD":"95.593","GP_ID":"190142149","DECAY_DATE":null},{"CLASSIFICATION_TYPE":"U","PERIOD":"95.593","GP_ID":"190142899","DECAY_DATE":null,"MEAN_MOTION_DOT":"0.00000460","SEMIMAJOR_AXIS":"6925.368","MEAN_MOTION":"15.06393730","EPHEMERIS_TYPE":"0","OBJECT_NAME":"STARLINK-2369","ARG_OF_PERICENTER":"93.9105","MEAN_MOTION_DDOT":"0.0000000000000","FILE":"3220049","APOAPSIS":"548.186","ELEMENT_SET_NO":"999","CENTER_NAME":"EARTH","INCLINATION":"53.0562","MEAN_ELEMENT_THEORY":"SGP4","BSTAR":"0.00004975700000","SITE":"AFETR","TLE_LINE1":"1 47909U 21021BB  21324.15709757  .00000460  00000-0  49757-4 0  9994","OBJECT_TYPE":"PAYLOAD","RA_OF_ASC_NODE":"122.0143","RCS_SIZE":"MEDIUM","TIME_SYSTEM":"UTC","NORAD_CAT_ID":"47909","ECCENTRICITY":"0.00013770","REV_AT_EPOCH":"3963","OBJECT_ID":"2021-021BB","MEAN_ANOMALY":"266.2041","REF_FRAME":"TEME","LAUNCH_DATE":"2021-03-14","PERIAPSIS":"546.279","COUNTRY_CODE":"US","EPOCH":"2021-11-20T03:46:13.230048","TLE_LINE2":"2 47909  53.0562 122.0143 0001377  93.9105 266.2041 15.06393730 39639"}];
